COSMOS 2251 DEB         
1 35282U 93036AJL 17345.28917075  .00000965  00000-0  23970-3 0  9994
2 35282  74.0955 203.2953 0099798 245.0540 114.0227 14.50270645452358
